ORBCOMM FM37            
1 33064U 08031E   26003.71991822  .00003534  00000+0  48156-3 0  9999
2 33064  48.4386 109.6827 0004954 168.1730 345.2551 14.80714126943759
ORBCOMM FM40            
1 33065U 08031F   26003.64734418  .00004652  00000+0  58861-3 0  9994
2 33065  48.4409  90.5305 0006080 184.2648 328.0059 14.83252297943902
VESSELSAT 1             
1 37840U 11058C   26004.16982693  .00000436  00000+0  92911-4 0  9991
2 37840  19.9632 317.6976 0013518 237.0659 122.8445 14.11404272734739
ORBCOMM FM109           
1 40086U 14040A   26003.78465873  .00001534  00000+0  36262-3 0  9990
2 40086  47.0021 148.6363 0002060 201.9022 158.1776 14.58592246610344
ORBCOMM FM107           
1 40087U 14040B   26003.80279494  .00001524  00000+0  36006-3 0  9991
2 40087  47.0040 149.4300 0000846 160.1119 199.9800 14.58667680610424
ORBCOMM FM106           
1 40088U 14040C   26004.11302169  .00002287  00000+0  40676-3 0  9998
2 40088  47.0606 313.8271 0017265 281.2705  78.6246 14.70109534613036
ORBCOMM FM111           
1 40089U 14040D   26003.71388673  .00004694  00000+0  52711-3 0  9995
2 40089  46.9993 138.2220 0027666  73.7795 286.6143 14.87877125620071
ORBCOMM FM104           
1 40090U 14040E   26003.87573535  .00001078  00000+0  27448-3 0  9999
2 40090  47.0031 185.1257 0015785  41.4954 318.7127 14.57049091609882
